CCSDS_OMM_VERS = 2.0
CREATION_DATE  = 
ORIGINATOR     = 

OBJECT_NAME    = ISS (NAUKA)
OBJECT_ID      = 2021-066A
CENTER_NAME    = EARTH
REF_FRAME      = TEME
TIME_SYSTEM    = UTC
MEAN_ELEMENT_THEORY = SGP/SGP4

EPOCH          = 2025-11-07T04:40:57.562752
MEAN_MOTION    = 15.49813276
ECCENTRICITY   = .00051549
INCLINATION    = 51.6334
RA_OF_ASC_NODE = 318.4356
ARG_OF_PERICENTER = 25.9626
MEAN_ANOMALY   = 334.1621

EPHEMERIS_TYPE = 0
CLASSIFICATION_TYPE = U
NORAD_CAT_ID   = 49044
ELEMENT_SET_NO = 999
REV_AT_EPOCH   = 23044
BSTAR          = .21019107E-3
MEAN_MOTION_DOT = .11482E-3
MEAN_MOTION_DDOT = 0

CCSDS_OMM_VERS = 2.0
CREATION_DATE  = 
ORIGINATOR     = 

OBJECT_NAME    = FREGAT DEB
OBJECT_ID      = 2011-037PF
CENTER_NAME    = EARTH
REF_FRAME      = TEME
TIME_SYSTEM    = UTC
MEAN_ELEMENT_THEORY = SGP/SGP4

EPOCH          = 2025-11-07T06:21:41.730048
MEAN_MOTION    = 12.33848769
ECCENTRICITY   = .0884401
INCLINATION    = 51.6284
RA_OF_ASC_NODE = 304.3258
ARG_OF_PERICENTER = 147.3816
MEAN_ANOMALY   = 218.4970

EPHEMERIS_TYPE = 0
CLASSIFICATION_TYPE = U
NORAD_CAT_ID   = 49271
ELEMENT_SET_NO = 999
REV_AT_EPOCH   = 19755
BSTAR          = .18113E-1
MEAN_MOTION_DOT = .8484E-4
MEAN_MOTION_DDOT = 0

CCSDS_OMM_VERS = 2.0
CREATION_DATE  = 
ORIGINATOR     = 

OBJECT_NAME    = CSS (WENTIAN)
OBJECT_ID      = 2022-085A
CENTER_NAME    = EARTH
REF_FRAME      = TEME
TIME_SYSTEM    = UTC
MEAN_ELEMENT_THEORY = SGP/SGP4

EPOCH          = 2025-11-07T00:57:48.018240
MEAN_MOTION    = 15.60556280
ECCENTRICITY   = .00056991
INCLINATION    = 41.4666
RA_OF_ASC_NODE = 233.4859
ARG_OF_PERICENTER = 336.2635
MEAN_ANOMALY   = 23.7940

EPHEMERIS_TYPE = 0
CLASSIFICATION_TYPE = U
NORAD_CAT_ID   = 53239
ELEMENT_SET_NO = 999
REV_AT_EPOCH   = 17384
BSTAR          = .38997351E-3
MEAN_MOTION_DOT = .32955E-3
MEAN_MOTION_DDOT = 0

CCSDS_OMM_VERS = 2.0
CREATION_DATE  = 
ORIGINATOR     = 

OBJECT_NAME    = CSS (MENGTIAN)
OBJECT_ID      = 2022-143A
CENTER_NAME    = EARTH
REF_FRAME      = TEME
TIME_SYSTEM    = UTC
MEAN_ELEMENT_THEORY = SGP/SGP4

EPOCH          = 2025-11-07T00:57:48.018240
MEAN_MOTION    = 15.60556280
ECCENTRICITY   = .00056991
INCLINATION    = 41.4666
RA_OF_ASC_NODE = 233.4859
ARG_OF_PERICENTER = 336.2635
MEAN_ANOMALY   = 23.7940

EPHEMERIS_TYPE = 0
CLASSIFICATION_TYPE = U
NORAD_CAT_ID   = 54216
ELEMENT_SET_NO = 999
REV_AT_EPOCH   = 15864
BSTAR          = .38997351E-3
MEAN_MOTION_DOT = .32955E-3
MEAN_MOTION_DDOT = 0

CCSDS_OMM_VERS = 2.0
CREATION_DATE  = 
ORIGINATOR     = 

OBJECT_NAME    = SOYUZ-MS 27
OBJECT_ID      = 2025-072A
CENTER_NAME    = EARTH
REF_FRAME      = TEME
TIME_SYSTEM    = UTC
MEAN_ELEMENT_THEORY = SGP/SGP4

EPOCH          = 2025-11-07T04:40:57.562752
MEAN_MOTION    = 15.49813276
ECCENTRICITY   = .00051549
INCLINATION    = 51.6334
RA_OF_ASC_NODE = 318.4356
ARG_OF_PERICENTER = 25.9626
MEAN_ANOMALY   = 334.1621

EPHEMERIS_TYPE = 0
CLASSIFICATION_TYPE = U
NORAD_CAT_ID   = 63520
ELEMENT_SET_NO = 999
REV_AT_EPOCH   = 2020
BSTAR          = .21019107E-3
MEAN_MOTION_DOT = .11482E-3
MEAN_MOTION_DDOT = 0

CCSDS_OMM_VERS = 2.0
CREATION_DATE  = 
ORIGINATOR     = 

OBJECT_NAME    = SHENZHOU-20 (SZ-20)
OBJECT_ID      = 2025-082A
CENTER_NAME    = EARTH
REF_FRAME      = TEME
TIME_SYSTEM    = UTC
MEAN_ELEMENT_THEORY = SGP/SGP4

EPOCH          = 2025-11-07T00:57:48.018240
MEAN_MOTION    = 15.60556280
ECCENTRICITY   = .00056991
INCLINATION    = 41.4666
RA_OF_ASC_NODE = 233.4859
ARG_OF_PERICENTER = 336.2635
MEAN_ANOMALY   = 23.7940

EPHEMERIS_TYPE = 0
CLASSIFICATION_TYPE = U
NORAD_CAT_ID   = 63632
ELEMENT_SET_NO = 999
REV_AT_EPOCH   = 25530
BSTAR          = .38997351E-3
MEAN_MOTION_DOT = .32955E-3
MEAN_MOTION_DDOT = 0

CCSDS_OMM_VERS = 2.0
CREATION_DATE  = 
ORIGINATOR     = 

OBJECT_NAME    = PROGRESS-MS 31
OBJECT_ID      = 2025-146A
CENTER_NAME    = EARTH
REF_FRAME      = TEME
TIME_SYSTEM    = UTC
MEAN_ELEMENT_THEORY = SGP/SGP4

EPOCH          = 2025-11-07T04:40:57.562752
MEAN_MOTION    = 15.49813276
ECCENTRICITY   = .00051549
INCLINATION    = 51.6334
RA_OF_ASC_NODE = 318.4356
ARG_OF_PERICENTER = 25.9626
MEAN_ANOMALY   = 334.1621

EPHEMERIS_TYPE = 0
CLASSIFICATION_TYPE = U
NORAD_CAT_ID   = 64751
ELEMENT_SET_NO = 999
REV_AT_EPOCH   = 675
BSTAR          = .21019107E-3
MEAN_MOTION_DOT = .11482E-3
MEAN_MOTION_DDOT = 0

CCSDS_OMM_VERS = 2.0
CREATION_DATE  = 
ORIGINATOR     = 

OBJECT_NAME    = TIANZHOU-9
OBJECT_ID      = 2025-149A
CENTER_NAME    = EARTH
REF_FRAME      = TEME
TIME_SYSTEM    = UTC
MEAN_ELEMENT_THEORY = SGP/SGP4

EPOCH          = 2025-11-07T00:57:48.018240
MEAN_MOTION    = 15.60556280
ECCENTRICITY   = .00056991
INCLINATION    = 41.4666
RA_OF_ASC_NODE = 233.4859
ARG_OF_PERICENTER = 336.2635
MEAN_ANOMALY   = 23.7940

EPHEMERIS_TYPE = 0
CLASSIFICATION_TYPE = U
NORAD_CAT_ID   = 64786
ELEMENT_SET_NO = 999
REV_AT_EPOCH   = 25530
BSTAR          = .38997351E-3
MEAN_MOTION_DOT = .32955E-3
MEAN_MOTION_DDOT = 0

CCSDS_OMM_VERS = 2.0
CREATION_DATE  = 
ORIGINATOR     = 

OBJECT_NAME    = CREW DRAGON 11
OBJECT_ID      = 2025-166A
CENTER_NAME    = EARTH
REF_FRAME      = TEME
TIME_SYSTEM    = UTC
MEAN_ELEMENT_THEORY = SGP/SGP4

EPOCH          = 2025-11-07T04:40:57.562752
MEAN_MOTION    = 15.49813276
ECCENTRICITY   = .00051549
INCLINATION    = 51.6334
RA_OF_ASC_NODE = 318.4356
ARG_OF_PERICENTER = 25.9626
MEAN_ANOMALY   = 334.1621

EPHEMERIS_TYPE = 0
CLASSIFICATION_TYPE = U
NORAD_CAT_ID   = 65077
ELEMENT_SET_NO = 999
REV_AT_EPOCH   = 214
BSTAR          = .21019107E-3
MEAN_MOTION_DOT = .11482E-3
MEAN_MOTION_DDOT = 0

CCSDS_OMM_VERS = 2.0
CREATION_DATE  = 
ORIGINATOR     = 

OBJECT_NAME    = DRAGON CRS-33
OBJECT_ID      = 2025-186A
CENTER_NAME    = EARTH
REF_FRAME      = TEME
TIME_SYSTEM    = UTC
MEAN_ELEMENT_THEORY = SGP/SGP4

EPOCH          = 2025-11-07T04:40:57.562752
MEAN_MOTION    = 15.49813276
ECCENTRICITY   = .00051549
INCLINATION    = 51.6334
RA_OF_ASC_NODE = 318.4356
ARG_OF_PERICENTER = 25.9626
MEAN_ANOMALY   = 334.1621

EPHEMERIS_TYPE = 0
CLASSIFICATION_TYPE = U
NORAD_CAT_ID   = 65304
ELEMENT_SET_NO = 999
REV_AT_EPOCH   = 11
BSTAR          = .21019107E-3
MEAN_MOTION_DOT = .11482E-3
MEAN_MOTION_DDOT = 0

